ATLAS CENTAUR R/B       
1 06155U 72065B   26087.61174261  .00001417  00000+0  19582-3 0  9998
2 06155  35.0008 194.8574 0033361 170.5205 189.6131 14.77739665844065
SL-8 R/B                
1 08459U 75112B   26087.42313266  .00000227  00000+0  83278-4 0  9994
2 08459  74.0629 344.4541 0014546  69.9467 290.3251 14.38214358634567
SL-3 R/B                
1 10114U 77057B   26087.55692803  .00015771  00000+0  32449-3 0  9999
2 10114  97.5795 260.3189 0006743 205.9683 154.1229 15.46023240671244
SEASAT 1                
1 10967U 78064A   26087.44920454  .00000273  00000+0  11465-3 0  9994
2 10967 108.0076 164.8616 0002640 276.5279  83.5566 14.46175412509225
SL-14 R/B               
1 11267U 79011B   26087.42697338  .00000752  00000+0  71729-4 0  9993
2 11267  82.5209  78.7850 0015987   0.9771 359.1477 14.91931784531578
SL-8 R/B                
1 11574U 79089B   26087.33376089  .00000346  00000+0  11246-3 0  9992
2 11574  74.0685  56.5276 0016782 226.8708 133.1046 14.42361887438791
SL-14 R/B               
1 11672U 80005B   26087.58656743  .00000604  00000+0  58438-4 0  9998
2 11672  82.5113 289.3069 0017228  99.6074 260.7093 14.90951222479306
SL-8 R/B                
1 12139U 81003B   26087.53922091  .00025724  00000+0  64441-3 0  9993
2 12139  82.9333 272.5822 0260927 113.0656 249.8316 15.11794620317529
SL-3 R/B                
1 12465U 81046B   26087.53533511  .00013467  00000+0  30864-3 0  9990
2 12465  81.2284 267.1024 0018250 315.5457  44.4320 15.42447536441336
SL-3 R/B                
1 12904U 81103B   26087.58124694  .00006065  00000+0  26718-3 0  9994
2 12904  81.1605 191.2712 0012714 218.6858 141.3464 15.21594564976103
SL-3 R/B                
1 13068U 82013B   26087.58172652  .00003756  00000+0  16133-3 0  9998
2 13068  81.1740 138.6269 0023491 115.4333 244.9334 15.22182216407229
SL-3 R/B                
1 13154U 82039B   26087.54079567  .00002880  00000+0  17335-3 0  9991
2 13154  81.1567 194.2258 0028631 262.0967  97.7008 15.10183677384484
